STARLINK-30071          
1 56708U 23067W   25060.29036047 -.00000479  00000+0 -20378-4 0  9993
2 56708  42.9987 143.1837 0000926 227.1629 132.9136 15.02537791 98642
STARLINK-30085          
1 56709U 23067X   25060.29703030 -.00000737  00000+0 -39510-4 0  9992
2 56709  43.0009 143.2357 0001093 262.2167  97.8551 15.02527983 98643
STARLINK-6197           
1 56767U 23078A   25059.86984421  .00042002  00000+0  33793-2 0  9998
2 56767  69.9986 226.9396 0002971 284.0881  75.9948 14.99758884 96197
STARLINK-6198           
1 56768U 23078B   25059.61019719 -.00000053  00000+0  33730-5 0  9996
2 56768  70.0004 187.5075 0002941 266.7875  93.2947 14.98329689 97149
STARLINK-5978           
1 56769U 23078C   25059.54391349  .00001354  00000+0  12122-3 0  9995
2 56769  69.9984 227.8099 0003136 270.2972  89.7828 14.98327222 96400
STARLINK-6342           
1 56770U 23078D   25059.54407858  .00000474  00000+0  47554-4 0  9990
2 56770  69.9991 227.8099 0003046 267.5993  92.4817 14.98328134 96404
STARLINK-6339           
1 56771U 23078E   25060.01983796  .00849956  40062-3  98748-3 0  9997
2 56771  69.9972 155.2703 0007440 272.2560  69.9017 16.08659609 98225
STARLINK-6275           
1 56772U 23078F   25060.47438004  .00000567  00000+0  55317-4 0  9992
2 56772  69.9984 225.4392 0003146 270.1553  89.9246 14.98327589 96546
STARLINK-6296           
1 56773U 23078G   25060.51124856 -.00000183  00000+0 -75745-5 0  9999
2 56773  70.0002 165.5419 0003016 270.1062  89.9752 14.98329846 98021
STARLINK-6190           
1 56774U 23078H   25060.49524915  .00000515  00000+0  50943-4 0  9996
2 56774  69.9999 225.5089 0003001 270.8509  89.2306 14.98330728 96545
STARLINK-6292           
1 56775U 23078J   25060.50707149  .00002224  00000+0  19409-3 0  9991
2 56775  70.0006 165.5285 0003223 275.4797  84.5994 14.98340683 98022
STARLINK-6274           
1 56776U 23078K   25060.53234609 -.00000489  00000+0 -33219-4 0  9990
2 56776  70.0011 185.5000 0002938 271.1975  88.8847 14.98326813 97537
STARLINK-5582           
1 56777U 23078L   25060.49085423 -.00001651  00000+0 -13061-3 0  9998
2 56777  69.9989 205.6231 0002966 269.6954  90.3865 14.98317151 97037
STARLINK-6304           
1 56778U 23078M   25060.52816962  .00000041  00000+0  11234-4 0  9994
2 56778  70.0013 185.4855 0002844 266.8015  93.2819 14.98330719 97539
STARLINK-6231           
1 56779U 23078N   25060.50312542  .00000571  00000+0  55691-4 0  9991
2 56779  70.0006 185.3960 0003116 271.9919  88.0884 14.98326571 97536
STARLINK-5963           
1 56780U 23078P   25060.48682272  .00000672  00000+0  64101-4 0  9998
2 56780  69.9996 205.2285 0003413 270.6853  89.3915 14.98325998 97045
STARLINK-5989           
1 56781U 23078Q   25060.46997764  .00000715  00000+0  67743-4 0  9995
2 56781  69.9991 205.5484 0003149 268.8816  91.1982 14.98317589 97030
STARLINK-6352           
1 56782U 23078R   25060.52399612  .00000875  00000+0  81126-4 0  9999
2 56782  70.0017 185.4703 0002776 269.2821  90.8020 14.98328292 97536
STARLINK-6357           
1 56783U 23078S   25060.51565165  .00000367  00000+0  38543-4 0  9998
2 56783  70.0009 185.4406 0002839 273.0531  87.0303 14.98326475 97532
STARLINK-6354           
1 56784U 23078T   25060.51982403  .00000831  00000+0  77468-4 0  9992
2 56784  70.0011 185.4554 0003037 273.6539  86.4273 14.98327361 97539
STARLINK-5931           
1 56785U 23078U   25060.47833106 -.00000236  00000+0 -11973-4 0  9993
2 56785  69.9996 205.5790 0003137 270.2052  89.8748 14.98325074 97037
STARLINK-6341           
1 56786U 23078V   25060.51147425 -.00001255  00000+0 -97401-4 0  9993
2 56786  70.0012 185.4265 0003096 271.1823  88.8982 14.98329780 97535
STARLINK-6326           
1 56787U 23078W   25060.48642933  .00001427  00000+0  12740-3 0  9995
2 56787  70.0005 185.3408 0003178 270.3979  89.6815 14.98329809 97536
STARLINK-6336           
1 56788U 23078X   25060.50729923 -.00000702  00000+0 -51071-4 0  9992
2 56788  70.0010 185.4107 0002838 271.0529  89.0305 14.98330403 97531
STARLINK-6325           
1 56789U 23078Y   25060.48203918 -.00000381  00000+0 -24166-4 0  9999
2 56789  70.0008 165.4408 0002934 269.6026  90.4796 14.98319989 98024
STARLINK-6345           
1 56790U 23078Z   25060.49037946 -.00000684  00000+0 -49575-4 0  9995
2 56790  70.0007 165.4712 0003060 270.7813  89.2995 14.98327582 98026
STARLINK-5977           
1 56791U 23078AA  25060.50752179 -.00000387  00000+0 -24645-4 0  9991
2 56791  70.0001 205.2814 0003052 269.2729  90.8081 14.98330317 97042
STARLINK-6046           
1 56792U 23078AB  25060.48250656  .00000632  00000+0  60758-4 0  9998
2 56792  69.9993 205.5945 0003050 271.5942  88.4867 14.98325226 97036
STARLINK-6052           
1 56793U 23078AC  25060.52422067 -.00000364  00000+0 -22732-4 0  9995
2 56793  70.0006 205.3369 0003184 271.8138  88.2657 14.98328089 97047
STARLINK-6060           
1 56794U 23078AD  25059.91668981 -.00026310  00000+0 -22060-2 0  9995
2 56794  70.0026 186.8487 0003094 276.0261 184.2954 14.98320557  5417
STARLINK-6061           
1 56795U 23078AE  25060.47407329  .00000047  00000+0  11748-4 0  9996
2 56795  70.0003 185.2947 0002967 272.3892  87.6927 14.98327756 97532
STARLINK-6049           
1 56796U 23078AF  25060.47417013 -.00000008  00000+0  71514-5 0  9994
2 56796  69.9991 205.5645 0003367 265.2406  94.8369 14.98324057 97030
STARLINK-6058           
1 56797U 23078AG  25060.48667824  .00001096  00000+0  99640-4 0  9999
2 56797  69.9992 205.6006 0003124 268.1226  91.9575 14.98327674 97032
STARLINK-6068           
1 56798U 23078AH  25060.50002315  .01162902  00000+0  85237-1 0  9990
2 56798  70.0026 185.3016 0003203 267.2706 169.3142 15.00641391 97534
STARLINK-5953           
1 56799U 23078AJ  25060.52839313 -.00000286  00000+0 -16163-4 0  9991
2 56799  70.0000 205.3481 0002946 269.2294  90.8528 14.98328909 97048
STARLINK-6036           
1 56800U 23078AK  25059.66468603  .00000232  00000+0  27277-4 0  9994
2 56800  70.0002 207.5541 0002962 267.7797  92.3023 14.98331459 96650
STARLINK-6087           
1 56801U 23078AL  25060.48225326  .00000344  00000+0  36602-4 0  9996
2 56801  70.0000 185.3231 0003088 270.7891  89.2914 14.98327449 97533
STARLINK-6070           
1 56802U 23078AM  25060.49912654  .00001159  00000+0  10489-3 0  9994
2 56802  70.0011 185.3882 0003539 275.9338  84.1417 14.98328709 97534
STARLINK-6029           
1 56803U 23078AN  25060.52004304  .00000476  00000+0  47697-4 0  9996
2 56803  70.0001 205.3214 0003303 270.4185  89.6596 14.98330496 97045
STARLINK-6069           
1 56804U 23078AP  25060.49060261 -.00000296  00000+0 -17031-4 0  9998
2 56804  70.0001 185.3526 0002997 267.3460  92.7356 14.98328225 97538
STARLINK-6064           
1 56805U 23078AQ  25060.49478037  .00001415  00000+0  12640-3 0  9995
2 56805  70.0003 185.3643 0003004 263.1320  96.9497 14.98320220 97539
STARLINK-6072           
1 56806U 23078AR  25059.72309797 -.00059706  00000+0 -51013-2 0  9990
2 56806  70.0000 167.2089 0001640 252.8878 107.2101 14.97856576 97655
STARLINK-6073           
1 56807U 23078AS  25060.47390655  .00000012  00000+0  87747-5 0  9998
2 56807  70.0001 185.2940 0003177 270.8804  89.1991 14.98325713 97536
STARLINK-6042           
1 56808U 23078AT  25060.47959335 -.00032341  00000+0 -27033-2 0  9996
2 56808  69.9998 135.5384 0003322 279.8263  80.2521 14.98497994 98778
STARLINK-6040           
1 56809U 23078AU  25060.49917364  .00000588  00000+0  57104-4 0  9995
2 56809  70.0003 205.2491 0003040 270.7656  89.3155 14.98328763 97045
STARLINK-6031           
1 56810U 23078AV  25060.51588499 -.00000630  00000+0 -44987-4 0  9998
2 56810  69.9991 205.3058 0003597 274.7771  85.2977 14.98321096 97048
STARLINK-6063           
1 56811U 23078AW  25060.46116023  .00000014  00000+0  90016-5 0  9992
2 56811  70.0007 165.3671 0002743 273.2136  86.8709 14.98330728 98028
STARLINK-6065           
1 56812U 23078AX  25060.48242195 -.00000244  00000+0 -12636-4 0  9993
2 56812  70.0005 185.3300 0003028 269.0640  91.0172 14.98327808 97530
STARLINK-6056           
1 56813U 23078AY  25060.49516243 -.00001050  00000+0 -80242-4 0  9997
2 56813  69.9982 205.2337 0002477 267.9569  92.1306 14.98329844 97047
STARLINK-6059           
1 56814U 23078AZ  25060.50335095  .00002081  00000+0  18207-3 0  9998
2 56814  70.0000 205.2632 0003186 273.9964  86.0831 14.98339239 97048
STARLINK-6057           
1 56815U 23078BA  25060.50002315  .01220053  00000+0  29276-1 0  9993
2 56815  70.0016 203.8669 0003291 275.8393 355.3774 15.38204230 97083
STARLINK-6067           
1 56816U 23078BB  25060.46973058  .00001257  00000+0  11311-3 0  9995
2 56816  70.0024 185.2780 0003085 270.1513  89.9292 14.98331156 97531
STARLINK-5982           
1 56817U 23078BC  25060.51169685 -.00001162  00000+0 -89563-4 0  9997
2 56817  69.9992 205.2921 0003579 276.9810  83.0942 14.98329912 97045
STARLINK-6028           
1 56818U 23078BD  25060.49498413  .00000926  00000+0  85356-4 0  9990
2 56818  69.9988 205.2317 0004163 266.0974  93.9709 14.98337463 97042
STARLINK-30119          
1 56823U 23079A   25060.15663037  .00007927  00000+0  60083-3 0  9993
2 56823  42.9987 337.1905 0001199 273.8215  86.2490 15.02560434 96364
STARLINK-30120          
1 56824U 23079B   25060.15330729 -.00000139  00000+0  47773-5 0  9995
2 56824  43.0027 337.1697 0001167 275.8700  84.2009 15.02538097 96371
STARLINK-30084          
1 56825U 23079C   25059.21927874 -.00000285  00000+0 -60542-5 0  9996
2 56825  43.0038 342.1999 0000480 302.2343  57.8452 15.02534266 96552
STARLINK-30114          
1 56826U 23079D   25059.16943696  .00000454  00000+0  48718-4 0  9997
2 56826  43.0047 342.4932 0001311 281.0918  78.9777 15.02532599 96864
STARLINK-30151          
1 56827U 23079E   25060.07683817 -.00000534  00000+0 -24470-4 0  9996
2 56827  43.0018 337.4494 0001533 274.3294  85.7373 15.02541014 96363
